     2.100          NAVIGATION                              RINEX VERSION / TYPE
fic2rin                                 03/17/2013 00:32:03 PGM / RUN BY / DATE
                                                            END OF HEADER
25 13  3 16 12  0  0.0  .784010626376D-04  .329691829393D-11  .000000000000D+00
     .103000000000D+03 -.173125000000D+02  .395695053716D-08  .259737238774D+01
    -.823289155960D-06  .232448917814D-02  .973604619503D-05  .515357826042D+04
     .561600000000D+06  .000000000000D+00 -.219117319372D+01 -.409781932831D-07
     .972120658762D+00  .197750000000D+03  .559330600399D+00 -.777603818892D-08
     .332156692802D-09  .100000000000D+01  .173100000000D+04  .000000000000D+00
     .240000000000D+01  .000000000000D+00  .558793544769D-08  .103000000000D+03
     .554406000000D+06  .400000000000D+01
26 13  3 16 12  0  0.0 -.645853579044D-04  .145519152284D-10  .000000000000D+00
     .800000000000D+02  .480312500000D+02  .440696928225D-08 -.100271219807D+01
     .284239649773D-05  .212616201025D-01  .412017107010D-05  .515365816116D+04
     .561600000000D+06 -.707805156708D-07  .209694889166D+01  .484287738800D-06
     .979534730513D+00  .309875000000D+03  .122553835593D+01 -.837570602463D-08
    -.500020827875D-10  .100000000000D+01  .173100000000D+04  .000000000000D+00
     .240000000000D+01  .000000000000D+00 -.605359673500D-08  .800000000000D+02
     .554406000000D+06  .400000000000D+01
28 13  3 16 12  0  0.0  .241401605308D-03  .341060513165D-11  .000000000000D+00
     .550000000000D+02 -.375625000000D+02  .385730352932D-08  .100020492911D+01
    -.194646418095D-05  .186195468996D-01  .102967023849D-04  .515364558792D+04
     .561600000000D+06 -.316649675369D-06 -.212906210277D+01 -.800937414169D-07
     .982390217867D+00  .196281250000D+03 -.177519282116D+01 -.797747515100D-08
     .247153152064D-09  .100000000000D+01  .173100000000D+04  .000000000000D+00
     .240000000000D+01  .000000000000D+00 -.107102096081D-07  .550000000000D+02
     .554406000000D+06  .400000000000D+01
31 13  3 16 12  0  0.0  .306710135192D-03  .159161572810D-11  .000000000000D+00
     .400000000000D+02 -.664062500000D+02  .401802450971D-08 -.260822677029D+01
    -.336766242981D-05  .804311793763D-02  .653043389320D-05  .515355743980D+04
     .561600000000D+06 -.223517417908D-07  .307590915619D+01  .122934579849D-06
     .980868252026D+00  .265406250000D+03 -.758337918150D+00 -.785354141724D-08
    -.296798077117D-09  .100000000000D+01  .173100000000D+04  .000000000000D+00
     .240000000000D+01  .000000000000D+00 -.130385160446D-07  .400000000000D+02
     .554406000000D+06  .400000000000D+01
32 13  3 16 12  0  0.0 -.543538480997D-03 -.295585778076D-11  .000000000000D+00
     .650000000000D+02  .880312500000D+02  .458590530708D-08 -.201929006829D+01
     .438652932644D-05  .115728427190D-01  .101737678051D-04  .515374639320D+04
     .561600000000D+06 -.294297933578D-06  .104435124999D+01 -.169500708580D-06
     .949718877180D+00  .176593750000D+03 -.385260933241D+00 -.808247952486D-08
    -.714315468392D-11  .100000000000D+01  .173100000000D+04  .000000000000D+00
     .240000000000D+01  .000000000000D+00 -.325962901115D-08  .650000000000D+02
     .554406000000D+06  .400000000000D+01
15 13  3 16 11 59 44.0 -.111727043986D-03 -.136424205266D-11  .000000000000D+00
     .200000000000D+01  .567187500000D+02  .512878506306D-08 -.450498727777D+00
     .289455056190D-05  .535561610013D-02  .386871397495D-05  .515372566223D+04
     .561584000000D+06  .875443220139D-07  .197776214402D+01  .130385160446D-07
     .941405682811D+00  .294718750000D+03  .156725064639D+00 -.858357182593D-08
    -.164292557730D-10  .100000000000D+01  .173100000000D+04  .000000000000D+00
     .240000000000D+01  .000000000000D+00 -.102445483208D-07  .200000000000D+01
     .558816000000D+06  .400000000000D+01
15 13  3 16 13 59 44.0 -.111736822873D-03 -.136424205266D-11  .000000000000D+00
     .210000000000D+02  .623125000000D+02  .523736101425D-08  .599572021347D+00
     .332482159138D-05  .535540096462D-02  .379234552383D-05  .515372532082D+04
     .568784000000D+06  .335276126862D-07  .197770014994D+01  .260770320892D-07
     .941405390228D+00  .290437500000D+03  .156808974695D+00 -.862107338803D-08
    -.203579908492D-10  .100000000000D+01  .173100000000D+04  .000000000000D+00
     .240000000000D+01  .000000000000D+00 -.102445483208D-07  .210000000000D+02
     .561606000000D+06  .400000000000D+01
 1 13  3 16 14  0  0.0  .792508944869D-05  .306954461848D-11  .000000000000D+00
     .460000000000D+02 -.325000000000D+02  .473805450185D-08 -.938633646156D+00
    -.173039734364D-05  .165378279053D-02  .833719968796D-05  .515370018578D+04
     .568800000000D+06  .428408384323D-07 -.889752685999D-01  .223517417908D-07
     .960585030371D+00  .218593750000D+03  .351606981202D+00 -.806319300721D-08
    -.288226291496D-09  .100000000000D+01  .173100000000D+04  .000000000000D+00
     .240000000000D+01  .000000000000D+00  .838190317154D-08  .460000000000D+02
     .561606000000D+06  .400000000000D+01
 2 13  3 16 14  0  0.0  .422530807555D-03  .159161572810D-11  .000000000000D+00
     .600000000000D+01 -.311250000000D+02  .540165357198D-08 -.925060140697D-01
    -.151619315147D-05  .121650649235D-01  .748410820961D-05  .515361911964D+04
     .568800000000D+06  .108033418655D-06 -.109038710220D+00  .126659870148D-06
     .939090563749D+00  .225593750000D+03 -.264444207538D+01 -.853964142463D-08
    -.262868092368D-09  .100000000000D+01  .173100000000D+04  .000000000000D+00
     .240000000000D+01  .000000000000D+00 -.176951289177D-07  .600000000000D+01
     .561606000000D+06  .400000000000D+01
 3 13  3 16 14  0  0.0  .181381125003D-03  .511590769747D-11  .000000000000D+00
     .730000000000D+02  .155312500000D+02  .542879755978D-08  .757392817480D-01
     .789761543274D-06  .160326927435D-01  .618584454060D-05  .515367777443D+04
     .568800000000D+06 -.251457095146D-06 -.127780342157D+01  .162050127983D-06
     .933480125160D+00  .249000000000D+03  .127390161571D+01 -.879072331177D-08
     .370729728096D-09  .100000000000D+01  .173100000000D+04  .000000000000D+00
     .340000000000D+01  .000000000000D+00 -.465661287308D-08  .730000000000D+02
     .561606000000D+06  .400000000000D+01
 4 13  3 16 14  0  0.0  .162940472364D-03  .109139364213D-10  .000000000000D+00
     .440000000000D+02 -.351875000000D+02  .524414701120D-08 -.313764818611D+01
    -.198371708393D-05  .103285328951D-01  .778771936893D-05  .515376066780D+04
     .568800000000D+06  .726431608200D-07 -.925196294482D-01 -.180676579475D-06
     .938133494946D+00  .217000000000D+03  .964860848796D+00 -.816069706865D-08
    -.283226083217D-09  .100000000000D+01  .173100000000D+04  .000000000000D+00
     .240000000000D+01  .000000000000D+00 -.605359673500D-08  .440000000000D+02
     .561606000000D+06  .400000000000D+01
 5 13  3 16 14  0  0.0 -.388047657907D-03 -.159161572810D-11  .000000000000D+00
     .650000000000D+02  .561250000000D+02  .475912680816D-08  .200427874404D+01
     .303424894810D-05  .305315491278D-02  .107455998659D-04  .515358243179D+04
     .568800000000D+06 -.800937414169D-07  .955391371291D+00  .558793544769D-07
     .949228319787D+00  .167562500000D+03  .315819329497D+00 -.806033574534D-08
    -.728601777760D-10  .100000000000D+01  .173100000000D+04  .000000000000D+00
     .240000000000D+01  .000000000000D+00 -.102445483208D-07  .650000000000D+02
     .561606000000D+06  .400000000000D+01
 6 13  3 16 14  0  0.0  .312538351864D-03 -.152340362547D-10  .000000000000D+00
     .103000000000D+03  .145937500000D+02  .522486049355D-08  .194874551502D+01
     .681728124619D-06  .787391222548D-02  .568479299545D-05  .515368133354D+04
     .568800000000D+06  .651925802231D-07 -.119884519779D+01  .111758708954D-06
     .940172025939D+00  .257500000000D+03 -.368394286541D+00 -.841713632180D-08
     .251081887140D-09  .100000000000D+01  .173100000000D+04  .000000000000D+00
     .240000000000D+01  .000000000000D+00 -.512227416039D-08  .103000000000D+03
     .561606000000D+06  .400000000000D+01
 7 13  3 16 14  0  0.0  .191825442016D-03  .432009983342D-11  .000000000000D+00
     .130000000000D+02 -.684687500000D+02  .409088468748D-08 -.148636630517D+01
    -.361166894436D-05  .612463348079D-02  .617094337940D-05  .515370425606D+04
     .568800000000D+06 -.447034835815D-07  .307164025591D+01 -.109896063805D-06
     .975851145214D+00  .268687500000D+03 -.292888408398D+01 -.796426031484D-08
    -.284654714154D-09  .100000000000D+01  .173100000000D+04  .000000000000D+00
     .240000000000D+01  .000000000000D+00 -.107102096081D-07  .130000000000D+02
     .561606000000D+06  .400000000000D+01
 8 13  3 16 14  0  0.0  .514695420861D-05  .227373675443D-12  .000000000000D+00
     .125000000000D+03 -.718125000000D+02  .357157734196D-08 -.204079656303D+01
    -.383891165257D-05  .127587273018D-01  .684335827827D-05  .515359632492D+04
     .568800000000D+06 -.558793544769D-08 -.312192355909D+01 -.128522515297D-06
     .998509888356D+00  .266406250000D+03 -.287792609468D+01 -.765853329437D-08
    -.180721813503D-09  .100000000000D+01  .173100000000D+04  .000000000000D+00
     .240000000000D+01  .000000000000D+00 -.419095158577D-08  .125000000000D+03
     .561606000000D+06  .400000000000D+01
 9 13  3 16 14  0  0.0  .227329786867D-03  .261479726760D-11  .000000000000D+00
     .102000000000D+03 -.578437500000D+02  .412195741036D-08 -.124921820419D+01
    -.280141830444D-05  .171848605387D-01  .576861202717D-05  .515280721092D+04
     .568800000000D+06 -.227242708206D-06  .304794980442D+01  .365078449249D-06
     .984493443486D+00  .282062500000D+03  .164019059490D+01 -.817784063989D-08
    -.323227749447D-09  .100000000000D+01  .173100000000D+04  .000000000000D+00
     .240000000000D+01  .000000000000D+00 -.558793544769D-08  .102000000000D+03
     .561606000000D+06  .400000000000D+01
